[{"OBJECT_NAME":"SITRO-AIS 8 (ANOKHIN)","OBJECT_ID":"2023-091AD","EPOCH":"2026-03-09T23:44:40.058592","MEAN_MOTION":15.29359179,"ECCENTRICITY":0.0012509,"INCLINATION":97.5169,"RA_OF_ASC_NODE":133.2823,"ARG_OF_PERICENTER":92.0171,"MEAN_ANOMALY":268.2501,"EPHEMERIS_TYPE":0,"CLASSIFICATION_TYPE":"U","NORAD_CAT_ID":57193,"ELEMENT_SET_NO":999,"REV_AT_EPOCH":14927,"BSTAR":0.00064982524,"MEAN_MOTION_DOT":0.00018494,"MEAN_MOTION_DDOT":0},{"OBJECT_NAME":"STARLINK-34113","OBJECT_ID":"2025-101S","EPOCH":"2026-03-09T04:14:12.566976","MEAN_MOTION":15.27569228,"ECCENTRICITY":0.00026479,"INCLINATION":43.0092,"RA_OF_ASC_NODE":1.1306,"ARG_OF_PERICENTER":277.4839,"MEAN_ANOMALY":82.5712,"EPHEMERIS_TYPE":0,"CLASSIFICATION_TYPE":"U","NORAD_CAT_ID":64010,"ELEMENT_SET_NO":999,"REV_AT_EPOCH":4697,"BSTAR":0.00066187856,"MEAN_MOTION_DOT":0.0001799,"MEAN_MOTION_DDOT":0}]
